ONEWEB-0650             
1 55813U 23029T   23268.37578681  .00000124  00000+0  27748-3 0  9991
2 55813  87.9240 143.1571 0002171  69.8558 290.2808 13.19725825 27559
ONEWEB-0652             
1 55814U 23029U   23268.62415744  .00006401  00000+0  17220-1 0  9996
2 55814  87.8999 127.8839 0002680 104.3719 255.7708 13.14494899 29269
ONEWEB-0653             
1 55815U 23029V   23268.76375497  .00001397  00000+0  37324-2 0  9999
2 55815  87.8985 127.7816 0001617  94.5060 265.6254 13.14539275 29317
ONEWEB-0654             
1 55816U 23029W   23268.52901446 -.00000228  00000+0 -64990-3 0  9997
2 55816  87.8987 127.8950 0001252 100.9608 259.1662 13.14501096 28618
ONEWEB-0656             
1 55817U 23029X   23268.58335648  .00003083  00000+0  21635-2 0  9997
2 55817  87.2375 114.3553 0003686  72.7437  23.2513 13.97943970 30253
ONEWEB-0657             
1 55818U 23029Y   23268.37102630  .00000098  00000+0  21366-3 0  9993
2 55818  87.9247 143.1622 0001284  40.7607 319.3621 13.19723274 27568
ONEWEB-0658             
1 55819U 23029Z   23268.66956079 -.00006727  00000+0 -16840-1 0  9996
2 55819  87.9227 143.0512 0002579  66.9498 293.1906 13.19757014 28295
ONEWEB-0660             
1 55820U 23029AA  23268.57979252 -.00000047  00000+0 -16165-3 0  9997
2 55820  87.8998 127.8529 0002538  80.3252 279.8164 13.14442870 28600
